BEIDOU-3 M6             
1 43582U 18062B   23254.49715185 -.00000008  00000+0  00000+0 0  9992
2 43582  54.1765 216.6577 0005136 356.9635   2.9977  1.86229869 34831
BEIDOU-3 M12            
1 43602U 18067A   23253.89643751 -.00000006  00000+0  00000+0 0  9990
2 43602  54.2640 215.3342 0007027  12.6807 347.3028  1.86231589 34308
BEIDOU-3 M11            
1 43603U 18067B   23255.10415494 -.00000012  00000+0  00000+0 0  9995
2 43603  54.2608 215.2588 0004167 357.8837   2.0766  1.86231545 34354
BEIDOU-3 M13            
1 43622U 18072A   23253.98919656  .00000012  00000+0  00000+0 0  9994
2 43622  55.7755  96.2421 0004352 298.5430  61.4988  1.86231730 33847
BEIDOU-3 M14            
1 43623U 18072B   23254.92855899  .00000020  00000+0  00000+0 0  9997
2 43623  55.7780  96.2034 0002906 349.3504  10.7317  1.86231743 33854
BEIDOU-3 M16            
1 43647U 18078A   23254.55416947 -.00000098  00000+0  00000+0 0  9991
2 43647  54.9042 335.0918 0005911   8.2180 351.8413  1.86227462 33351
BEIDOU-3 M15            
1 43648U 18078B   23254.68459156 -.00000097  00000+0  00000+0 0  9994
2 43648  54.8997 335.0913 0002762  20.0492 340.0118  1.86232446 33376
BEIDOU-3 G1             
1 43683U 18085A   23255.54291979 -.00000286  00000+0  00000+0 0  9994
2 43683   1.5310 123.8241 0002966 351.8389 211.0720  1.00276926 17944
COSMOS 2529             
1 43687U 18086A   23255.27416118  .00000019  00000+0  00000+0 0  9996
2 43687  64.3157 226.7510 0011300 262.5494  97.3055  2.13102099 37787
BEIDOU-3 M17            
1 43706U 18093A   23254.29561044 -.00000007  00000+0  00000+0 0  9994
2 43706  54.2595 216.5928 0010254 280.9016  78.9480  1.86232106 32733
BEIDOU-3 M18            
1 43707U 18093B   23255.23555154 -.00000011  00000+0  00000+0 0  9990
2 43707  54.2601 216.5525 0008500 306.3599  53.5236  1.86229943 32749
NAVSTAR 77 (USA 289)    
1 43873U 18109A   23255.12814758  .00000002  00000+0  00000+0 0  9997
2 43873  55.1947 132.0573 0025701 190.7878 341.7013  2.00569328 34836
BEIDOU-3 IGSO-1         
1 44204U 19023A   23255.31999455 -.00000188  00000+0  00000+0 0  9997
2 44204  57.2328  48.1585 0023640 194.8807 343.1005  1.00280648 16222
BEIDOU-2 G8             
1 44231U 19027A   23255.55883111 -.00000255  00000+0  00000+0 0  9993
2 44231   1.9754  81.0980 0006609 132.5225 123.3763  1.00269763 15969
COSMOS 2534             
1 44299U 19030A   23255.15100462  .00000020  00000+0  00000+0 0  9997
2 44299  64.3885 226.6822 0013478 281.5633 118.0897  2.13102049 33421
BEIDOU-3 IGSO-2         
1 44337U 19035A   23254.69832691 -.00000176  00000+0  00000+0 0  9992
2 44337  55.1527 167.7278 0032891 196.8932 356.9792  1.00272647 15542
NAVSTAR 78 (USA 293)    
1 44506U 19056A   23255.46959201 -.00000106  00000+0  00000+0 0  9999
2 44506  55.8225  11.1192 0037175 185.5680 132.9530  2.00566009 29832
BEIDOU-3 M24            
1 44542U 19061A   23254.23331153 -.00000006  00000+0  00000+0 0  9998
2 44542  54.4866 216.8262 0008431 340.3032  19.6296  1.86231530 26989
BEIDOU-3 M23            
1 44543U 19061B   23255.17966259 -.00000010  00000+0  00000+0 0  9999
2 44543  54.4850 216.7632 0005906 324.3410 221.9790  1.86231938 27002
BEIDOU-3 IGSO-3         
1 44709U 19073A   23255.50130211 -.00000136  00000+0  00000+0 0  9993
2 44709  56.5205 291.6657 0035205 190.1594 169.8745  1.00279696 14341
BEIDOU-3 M22            
1 44793U 19078A   23254.61565338 -.00000098  00000+0  00000+0 0  9991
2 44793  54.7525 335.0561 0004767  17.1734 342.8925  1.86232401 25857
BEIDOU-3 M21            
1 44794U 19078B   23255.28315545 -.00000094  00000+0  00000+0 0  9995
2 44794  54.7259 335.0150 0002736   7.6123 352.4440  1.86232842 25865
COSMOS 2544             
1 44850U 19088A   23255.11867639  .00000046  00000+0  00000+0 0  9993
2 44850  65.0804 107.5313 0011258 251.3701 108.6018  2.13102289 29218
BEIDOU-3 M19            
1 44864U 19090A   23255.20552425  .00000022  00000+0  00000+0 0  9999
2 44864  55.7108  96.3878 0015291 275.6985 226.0893  1.86232046 25442
BEIDOU-3 M20            
1 44865U 19090B   23255.12966307  .00000022  00000+0  00000+0 0  9999
2 44865  55.7125  96.4231 0013205 291.2283 249.4820  1.86232005 25426
BEIDOU-3 G2             
1 45344U 20017A   23255.43730059 -.00000149  00000+0  00000+0 0  9991
2 45344   2.0530  16.5924 0003110 162.2939  49.7669  1.00272683 13145
COSMOS 2545             
1 45358U 20018A   23255.31543585 -.00000086  00000+0  00000+0 0  9990
2 45358  64.8411 347.6466 0010219 237.8901 122.0476  2.13102696 27168
BEIDOU-3 G3             
1 45807U 20040A   23255.57300892 -.00000363  00000+0  00000+0 0  9992
2 45807   0.6095 345.3602 0006037 329.0422 353.7842  1.00272050 11952
NAVSTAR 79 (USA 304)    
1 45854U 20041A   23255.60703580 -.00000009  00000+0  00000+0 0  9997
2 45854  55.8903  68.3967 0036416 186.3044 174.7909  2.00563567 23818
GALAXY 30 (G-30)        
1 46114U 20056C   23255.61629253  .00000028  00000+0  00000+0 0  9998
2 46114   0.0199 132.5634 0001881  44.5529 271.1058  1.00272842 11178
COSMOS 2547             
1 46805U 20075A   23255.50436668  .00000018  00000+0  00000+0 0  9999
2 46805  64.6157 226.2288 0008444 244.0447 115.8505  2.13102951 22417
NAVSTAR 80 (USA 309)    
1 46826U 20078A   23255.36457431  .00000020  00000+0  00000+0 0  9993
2 46826  54.3091 251.7376 0036114 194.8866 326.6511  2.00562944 21276
NAVSTAR 81 (USA 319)    
1 48859U 21054A   23255.39459624 -.00000105  00000+0  00000+0 0  9990
2 48859  55.3400  12.9042 0012450 212.0474 153.7385  2.00573476 16523
QZS-1R                  
1 49336U 21096A   23246.63047823 -.00000285  00000+0  00000+0 0  9997
2 49336  35.3487  94.9203 0742050 269.1144 338.5695  1.00292751  6809
GSAT0223 (GALILEO 27)   
1 49809U 21116A   23254.47783885 -.00000104  00000+0  00000+0 0  9991
2 49809  57.2800   8.9075 0003509 182.5037 176.6685  1.70476482 10960
GSAT0224 (GALILEO 28)   
1 49810U 21116B   23253.73871167 -.00000106  00000+0  00000+0 0  9994
2 49810  57.2808   8.9255 0002784 173.0857 204.9488  1.70476459 10981
COSMOS 2557             
1 52984U 22075A   23254.72846164 -.00000092  00000+0  00000+0 0  9998
2 52984  64.7582 349.8254 0012031 275.3592  84.5356  2.13102438  9203
COSMOS 2559             
1 54031U 22130A   23254.20119716 -.00000095  00000+0  00000+0 0  9997
2 54031  64.7296 349.9711 0007250 217.9170 142.0624  2.13101652  7168
COSMOS 2564             
1 54377U 22161A   23255.33280866  .00000019  00000+0  00000+0 0  9999
2 54377  64.7565 226.2890 0010745 226.1833 133.7109  2.13102215  6133
NAVSTAR 82 (USA 343)    
1 55268U 23009A   23255.07966865 -.00000033  00000+0  00000+0 0  9999
2 55268  55.0879 188.1106 0004438  91.1001  88.2289  2.00555337  5000
BEIDOU-3 G4             
1 56564U 23066A   23255.53188269 -.00000123  00000+0  00000+0 0  9997
2 56564   2.8256 288.7634 0006670 214.6579 199.3335  1.00273290  1280
IRNSS-1J (NVS-01)       
1 56759U 23076A   23255.53654289 -.00000351  00000+0  00000+0 0  9997
2 56759   4.7200 271.9110 0006211 336.4432  65.5655  1.00270535  1009
